{"type": "FeatureCollection", "features": [ {"type": "Feature", "properties": {"norad_id": 40228, "name": "COSMOS 2251 DEB", "group": "cosmos-2251-debris", "lat": 28.580473436222537, "lon": 59.45652715768614, "alt_km": 769.5857452801147, "timestamp": "2025-12-19T06:59:44.305121+00:00", "meta": {"OBJECT_NAME": "COSMOS 2251 DEB", "OBJECT_ID": "1993-036BVH", "EPOCH": "2025-12-18T11:07:40.986048", "MEAN_MOTION": 14.41005465, "ECCENTRICITY": 0.00241854, "INCLINATION": 74.0545, "RA_OF_ASC_NODE": 249.9467, "ARG_OF_PERICENTER": 310.566, "MEAN_ANOMALY": 226.9406, "EPHEMERIS_TYPE": 0, "CLASSIFICATION_TYPE": "U", "NORAD_CAT_ID": 40228, "ELEMENT_SET_NO": 999, "REV_AT_EPOCH": 59003, "BSTAR": 0.00024280039, "MEAN_MOTION_DOT": 7.57e-06, "MEAN_MOTION_DDOT": 0}, "tle": {"line1": "1 40228U 93036BVH 25352.46366882  .00000757  00000+0  24280-3 0  9994", "line2": "2 40228  74.0545 249.9467 0024185 310.5660 226.9406 14.41005465590031"}}, "geometry": {"type": "Point", "coordinates": [59.45652715768614, 28.580473436222537]}}, {"type": "Feature", "properties": {"norad_id": 40230, "name": "COSMOS 2251 DEB", "group": "cosmos-2251-debris", "lat": 29.488381279445782, "lon": 25.29482327704162, "alt_km": 733.2952137605316, "timestamp": "2025-12-19T06:59:44.305131+00:00", "meta": {"OBJECT_NAME": "COSMOS 2251 DEB", "OBJECT_ID": "1993-036BVK", "EPOCH": "2025-12-18T09:36:19.874592", "MEAN_MOTION": 14.49348382, "ECCENTRICITY": 0.00189684, "INCLINATION": 74.044, "RA_OF_ASC_NODE": 216.2761, "ARG_OF_PERICENTER": 274.0504, "MEAN_ANOMALY": 266.869, "EPHEMERIS_TYPE": 0, "CLASSIFICATION_TYPE": "U", "NORAD_CAT_ID": 40230, "ELEMENT_SET_NO": 999, "REV_AT_EPOCH": 59053, "BSTAR": 0.00052195618, "MEAN_MOTION_DOT": 1.971e-05, "MEAN_MOTION_DDOT": 0}, "tle": {"line1": "1 40230U 93036BVK 25352.40023003  .00001971  00000+0  52196-3 0  9992", "line2": "2 40230  74.0440 216.2761 0018968 274.0504 266.8690 14.49348382590534"}}, "geometry": {"type": "Point", "coordinates": [25.29482327704162, 29.488381279445782]}}, {"type": "Feature", "properties": {"norad_id": 40233, "name": "COSMOS 2251 DEB", "group": "cosmos-2251-debris", "lat": -7.9200041200587785, "lon": -87.1382856891114, "alt_km": 672.5735596858094, "timestamp": "2025-12-19T06:59:44.305144+00:00", "meta": {"OBJECT_NAME": "COSMOS 2251 DEB", "OBJECT_ID": "1993-036BVN", "EPOCH": "2025-12-16T00:45:52.214112", "MEAN_MOTION": 14.58458772, "ECCENTRICITY": 0.0044987, "INCLINATION": 73.9406, "RA_OF_ASC_NODE": 96.8035, "ARG_OF_PERICENTER": 171.0622, "MEAN_ANOMALY": 189.1354, "EPHEMERIS_TYPE": 0, "CLASSIFICATION_TYPE": "U", "NORAD_CAT_ID": 40233, "ELEMENT_SET_NO": 999, "REV_AT_EPOCH": 59185, "BSTAR": 0.00091306486, "MEAN_MOTION_DOT": 4.268e-05, "MEAN_MOTION_DDOT": 0}, "tle": {"line1": "1 40233U 93036BVN 25350.03185433  .00004268  00000+0  91306-3 0  9996", "line2": "2 40233  73.9406  96.8035 0044987 171.0622 189.1354 14.58458772591855"}}, "geometry": {"type": "Point", "coordinates": [-87.1382856891114, -7.9200041200587785]}}, {"type": "Feature", "properties": {"norad_id": 40236, "name": "COSMOS 2251 DEB", "group": "cosmos-2251-debris", "lat": -35.03734038626728, "lon": 121.4642894331063, "alt_km": 899.1570584594474, "timestamp": "2025-12-19T06:59:44.305156+00:00", "meta": {"OBJECT_NAME": "COSMOS 2251 DEB", "OBJECT_ID": "1993-036BVR", "EPOCH": "2025-12-07T17:52:23.026080", "MEAN_MOTION": 13.24639967, "ECCENTRICITY": 0.05366128, "INCLINATION": 73.5349, "RA_OF_ASC_NODE": 151.6266, "ARG_OF_PERICENTER": 32.3576, "MEAN_ANOMALY": 330.9258, "EPHEMERIS_TYPE": 0, "CLASSIFICATION_TYPE": "U", "NORAD_CAT_ID": 40236, "ELEMENT_SET_NO": 999, "REV_AT_EPOCH": 53558, "BSTAR": 0.0015786255, "MEAN_MOTION_DOT": 1.455e-05, "MEAN_MOTION_DDOT": 0}, "tle": {"line1": "1 40236U 93036BVR 25341.74471095  .00001455  00000+0  15786-2 0  9991", "line2": "2 40236  73.5349 151.6266 0536612  32.3576 330.9258 13.24639967535580"}}, "geometry": {"type": "Point", "coordinates": [121.4642894331063, -35.03734038626728]}}, {"type": "Feature", "properties": {"norad_id": 40238, "name": "COSMOS 2251 DEB", "group": "cosmos-2251-debris", "lat": 70.37389192573613, "lon": 107.16676238486843, "alt_km": 902.30750768893, "timestamp": "2025-12-19T06:59:44.305167+00:00", "meta": {"OBJECT_NAME": "COSMOS 2251 DEB", "OBJECT_ID": "1993-036BVT", "EPOCH": "2025-12-13T22:00:17.688960", "MEAN_MOTION": 13.25118761, "ECCENTRICITY": 0.05494159, "INCLINATION": 73.9889, "RA_OF_ASC_NODE": 61.7905, "ARG_OF_PERICENTER": 33.3831, "MEAN_ANOMALY": 330.0665, "EPHEMERIS_TYPE": 0, "CLASSIFICATION_TYPE": "U", "NORAD_CAT_ID": 40238, "ELEMENT_SET_NO": 999, "REV_AT_EPOCH": 54052, "BSTAR": 0.0015955991, "MEAN_MOTION_DOT": 1.546e-05, "MEAN_MOTION_DDOT": 0}, "tle": {"line1": "1 40238U 93036BVT 25347.91687140  .00001546  00000+0  15956-2 0  9998", "line2": "2 40238  73.9889  61.7905 0549415  33.3831 330.0665 13.25118761540524"}}, "geometry": {"type": "Point", "coordinates": [107.16676238486843, 70.37389192573613]}}, {"type": "Feature", "properties": {"norad_id": 40239, "name": "COSMOS 2251 DEB", "group": "cosmos-2251-debris", "lat": -44.72150167398616, "lon": 99.76134822774641, "alt_km": 742.8846134824107, "timestamp": "2025-12-19T06:59:44.305177+00:00", "meta": {"OBJECT_NAME": "COSMOS 2251 DEB", "OBJECT_ID": "1993-036BVU", "EPOCH": "2025-12-18T12:43:44.063040", "MEAN_MOTION": 14.62020118, "ECCENTRICITY": 0.00852863, "INCLINATION": 74.0322, "RA_OF_ASC_NODE": 264.7457, "ARG_OF_PERICENTER": 14.7295, "MEAN_ANOMALY": 168.4785, "EPHEMERIS_TYPE": 0, "CLASSIFICATION_TYPE": "U", "NORAD_CAT_ID": 40239, "ELEMENT_SET_NO": 999, "REV_AT_EPOCH": 59695, "BSTAR": 0.00032567275, "MEAN_MOTION_DOT": 1.688e-05, "MEAN_MOTION_DDOT": 0}, "tle": {"line1": "1 40239U 93036BVU 25352.53037110  .00001688  00000+0  32567-3 0  9994", "line2": "2 40239  74.0322 264.7457 0085286  14.7295 168.4785 14.62020118596958"}}, "geometry": {"type": "Point", "coordinates": [99.76134822774641, -44.72150167398616]}}, {"type": "Feature", "properties": {"norad_id": 40792, "name": "COSMOS 2251 DEB", "group": "cosmos-2251-debris", "lat": 15.694947637985912, "lon": -149.79457505822788, "alt_km": 659.1554405506886, "timestamp": "2025-12-19T06:59:44.305187+00:00", "meta": {"OBJECT_NAME": "COSMOS 2251 DEB", "OBJECT_ID": "1993-036BVV", "EPOCH": "2025-12-13T21:48:53.616096", "MEAN_MOTION": 14.67590278, "ECCENTRICITY": 0.00153774, "INCLINATION": 74.0462, "RA_OF_ASC_NODE": 45.2013, "ARG_OF_PERICENTER": 149.8992, "MEAN_ANOMALY": 27.0176, "EPHEMERIS_TYPE": 0, "CLASSIFICATION_TYPE": "U", "NORAD_CAT_ID": 40792, "ELEMENT_SET_NO": 999, "REV_AT_EPOCH": 63201, "BSTAR": 0.0011407186, "MEAN_MOTION_DOT": 6.465e-05, "MEAN_MOTION_DDOT": 0}, "tle": {"line1": "1 40792U 93036BVV 25347.90895389  .00006465  00000+0  11407-2 0  9990", "line2": "2 40792  74.0462  45.2013 0015377 149.8992  27.0176 14.67590278632011"}}, "geometry": {"type": "Point", "coordinates": [-149.79457505822788, 15.694947637985912]}}, {"type": "Feature", "properties": {"norad_id": 40794, "name": "COSMOS 2251 DEB", "group": "cosmos-2251-debris", "lat": 73.92719017838414, "lon": -163.0696439576474, "alt_km": 585.9533158465656, "timestamp": "2025-12-19T06:59:44.305198+00:00", "meta": {"OBJECT_NAME": "COSMOS 2251 DEB", "OBJECT_ID": "1993-036BVX", "EPOCH": "2025-12-13T15:37:41.141568", "MEAN_MOTION": 14.93159868, "ECCENTRICITY": 0.00107848, "INCLINATION": 73.9763, "RA_OF_ASC_NODE": 122.399, "ARG_OF_PERICENTER": 261.0962, "MEAN_ANOMALY": 116.104, "EPHEMERIS_TYPE": 0, "CLASSIFICATION_TYPE": "U", "NORAD_CAT_ID": 40794, "ELEMENT_SET_NO": 999, "REV_AT_EPOCH": 61938, "BSTAR": 0.0047306735, "MEAN_MOTION_DOT": 0.00049759, "MEAN_MOTION_DDOT": 0}, "tle": {"line1": "1 40794U 93036BVX 25347.65117062  .00049759  00000+0  47307-2 0  9990", "line2": "2 40794  73.9763 122.3990 0010784 261.0962 116.1040 14.93159868619387"}}, "geometry": {"type": "Point", "coordinates": [-163.0696439576474, 73.92719017838414]}}, {"type": "Feature", "properties": {"norad_id": 40796, "name": "COSMOS 2251 DEB", "group": "cosmos-2251-debris", "lat": -32.656056771035374, "lon": -40.18196088999409, "alt_km": 604.3999459394709, "timestamp": "2025-12-19T06:59:44.305208+00:00", "meta": {"OBJECT_NAME": "COSMOS 2251 DEB", "OBJECT_ID": "1993-036BVZ", "EPOCH": "2025-12-18T03:16:26.396832", "MEAN_MOTION": 14.81774084, "ECCENTRICITY": 0.00561198, "INCLINATION": 74.0119, "RA_OF_ASC_NODE": 131.5134, "ARG_OF_PERICENTER": 267.2185, "MEAN_ANOMALY": 268.2913, "EPHEMERIS_TYPE": 0, "CLASSIFICATION_TYPE": "U", "NORAD_CAT_ID": 40796, "ELEMENT_SET_NO": 999, "REV_AT_EPOCH": 76238, "BSTAR": 0.00073722049, "MEAN_MOTION_DOT": 5.947e-05, "MEAN_MOTION_DDOT": 0}, "tle": {"line1": "1 40796U 93036BVZ 25352.13641663  .00005947  00000+0  73722-3 0  9992", "line2": "2 40796  74.0119 131.5134 0056119 267.2185 268.2913 14.81774084762382"}}, "geometry": {"type": "Point", "coordinates": [-40.18196088999409, -32.656056771035374]}}, {"type": "Feature", "properties": {"norad_id": 40797, "name": "COSMOS 2251 DEB", "group": "cosmos-2251-debris", "lat": -71.69265385522492, "lon": -37.686163967395366, "alt_km": 539.0452326231425, "timestamp": "2025-12-19T06:59:44.305218+00:00", "meta": {"OBJECT_NAME": "COSMOS 2251 DEB", "OBJECT_ID": "1993-036BWA", "EPOCH": "2025-12-18T12:21:56.405088", "MEAN_MOTION": 15.11435763, "ECCENTRICITY": 0.00720493, "INCLINATION": 73.9224, "RA_OF_ASC_NODE": 83.2734, "ARG_OF_PERICENTER": 353.7409, "MEAN_ANOMALY": 6.2874, "EPHEMERIS_TYPE": 0, "CLASSIFICATION_TYPE": "U", "NORAD_CAT_ID": 40797, "ELEMENT_SET_NO": 999, "REV_AT_EPOCH": 64731, "BSTAR": 0.00063352099, "MEAN_MOTION_DOT": 0.00011373, "MEAN_MOTION_DDOT": 0}, "tle": {"line1": "1 40797U 93036BWA 25352.51523617  .00011373  00000+0  63352-3 0  9991", "line2": "2 40797  73.9224  83.2734 0072049 353.7409   6.2874 15.11435763647310"}}, "geometry": {"type": "Point", "coordinates": [-37.686163967395366, -71.69265385522492]}}]}